start=new Date('2021-10-11T00:00:00.000Z').valueOf();
sats=[{"EPOCH":"2021-10-10T12:20:55.298688","RCS_SIZE":"LARGE","EPHEMERIS_TYPE":"0","ECCENTRICITY":"0.00016920","INCLINATION":"53.0543","CLASSIFICATION_TYPE":"U","COUNTRY_CODE":"US","REV_AT_EPOCH":"10590","FILE":"3155126","DECAY_DATE":null,"TLE_LINE2":"2 44718  53.0543 219.4675 0001692  61.8595 298.2565 15.06405076105908","MEAN_MOTION":"15.06405076","OBJECT_TYPE":"PAYLOAD","CENTER_NAME":"EARTH","ELEMENT_SET_NO":"999","MEAN_MOTION_DDOT":"0.0000000000000","REF_FRAME":"TEME","SITE":"AFETR","MEAN_MOTION_DOT":"0.00002080","SEMIMAJOR_AXIS":"6925.333","RA_OF_ASC_NODE":"219.4675","PERIAPSIS":"546.026","NORAD_CAT_ID":"44718","APOAPSIS":"548.370","BSTAR":"0.00015845000000","MEAN_ELEMENT_THEORY":"SGP4","PERIOD":"95.592","MEAN_ANOMALY":"298.2565","TLE_LINE1":"1 44718U 19074F   21283.51452892  .00002080  00000-0  15845-3 0  9993","OBJECT_ID":"2019-074F","TIME_SYSTEM":"UTC","ARG_OF_PERICENTER":"61.8595","OBJECT_NAME":"STARLINK-1012","LAUNCH_DATE":"2019-11-11","GP_ID":"186780397"},{"RCS_SIZE":"LARGE","EPOCH":"2021-10-10T12:31:33.230496","ECCENTRICITY":"0.00016590","EPHEMERIS_TYPE":"0","INCLINATION":"53.0529","CLASSIFICATION_TYPE":"U","COUNTRY_CODE":"US","FILE":"3155126","DECAY_DATE":null,"REV_AT_EPOCH":"10703","TLE_LINE2":"2 44719  53.0529 219.4233 0001659  65.7605 294.3557 15.06391341107034","OBJECT_TYPE":"PAYLOAD","CENTER_NAME":"EARTH","MEAN_MOTION":"15.06391341","REF_FRAME":"TEME","MEAN_MOTION_DDOT":"0.0000000000000","ELEMENT_SET_NO":"999","RA_OF_ASC_NODE":"219.4233","SEMIMAJOR_AXIS":"6925.375","SITE":"AFETR","MEAN_MOTION_DOT":"0.00000185","PERIAPSIS":"546.091","NORAD_CAT_ID":"44719","MEAN_ELEMENT_THEORY":"SGP4","APOAPSIS":"548.389","BSTAR":"0.00003130900000","MEAN_ANOMALY":"294.3557","PERIOD":"95.593","OBJECT_ID":"2019-074G","TLE_LINE1":"1 44719U 19074G   21283.52191239  .00000185  00000-0  31309-4 0  9998","OBJECT_NAME":"STARLINK-1013","ARG_OF_PERICENTER":"65.7605","TIME_SYSTEM":"UTC","GP_ID":"186780647","LAUNCH_DATE":"2019-11-11"},{"REV_AT_EPOCH":"10595","DECAY_DATE":null,"FILE":"3155694","TLE_LINE2":"2 44720  53.0532 218.1654 0002017  67.1562 292.9639 15.06396944105958","MEAN_MOTION":"15.06396944","OBJECT_TYPE":"PAYLOAD","CENTER_NAME":"EARTH","ELEMENT_SET_NO":"999","MEAN_MOTION_DDOT":"0.0000000000000","REF_FRAME":"TEME","EPOCH":"2021-10-10T19:20:13.895232","RCS_SIZE":"LARGE","ECCENTRICITY":"0.00020170","EPHEMERIS_TYPE":"0","INCLINATION":"53.0532","CLASSIFICATION_TYPE":"U","COUNTRY_CODE":"US","MEAN_ANOMALY":"292.9639","PERIOD":"95.592","TLE_LINE1":"1 44720U 19074H   21283.80571638  .00000797  00000-0  72420-4 0  9994","OBJECT_ID":"2019-074H","TIME_SYSTEM":"UTC","ARG_OF_PERICENTER":"67.1562","OBJECT_NAME":"STARLINK-1014","LAUNCH_DATE":"2019-11-11","GP_ID":"186838521","SITE":"AFETR","SEMIMAJOR_AXIS":"6925.358","MEAN_MOTION_DOT":"0.00000797","RA_OF_ASC_NODE":"218.1654","PERIAPSIS":"545.826","NORAD_CAT_ID":"44720","APOAPSIS":"548.620","BSTAR":"0.00007242000000","MEAN_ELEMENT_THEORY":"SGP4"},{"OBJECT_NAME":"STARLINK-1015","ARG_OF_PERICENTER":"65.0956","TIME_SYSTEM":"UTC","GP_ID":"186838772","LAUNCH_DATE":"2019-11-11","MEAN_ANOMALY":"295.0218","PERIOD":"95.592","OBJECT_ID":"2019-074J","TLE_LINE1":"1 44721U 19074J   21283.52927660  .00000645  00000-0  62219-4 0  9991","NORAD_CAT_ID":"44721","MEAN_ELEMENT_THEORY":"SGP4","APOAPSIS":"548.441","BSTAR":"0.00006221900000","RA_OF_ASC_NODE":"219.3930","SITE":"AFETR","MEAN_MOTION_DOT":"0.00000645","SEMIMAJOR_AXIS":"6925.347","PERIAPSIS":"545.984","CENTER_NAME":"EARTH","OBJECT_TYPE":"PAYLOAD","MEAN_MOTION":"15.06400426","REF_FRAME":"TEME","MEAN_MOTION_DDOT":"0.0000000000000","ELEMENT_SET_NO":"999","DECAY_DATE":null,"FILE":"3155694","REV_AT_EPOCH":"10590","TLE_LINE2":"2 44721  53.0534 219.3930 0001774  65.0956 295.0218 15.06400426105907","CLASSIFICATION_TYPE":"U","INCLINATION":"53.0534","COUNTRY_CODE":"US","RCS_SIZE":"LARGE","EPOCH":"2021-10-10T12:42:09.498240","ECCENTRICITY":"0.00017740","EPHEMERIS_TYPE":"0"},{"TLE_LINE1":"1 44722U 19074K   21283.53297149 -.00001385  00000-0 -74087-4 0  9995","OBJECT_ID":"2019-074K","PERIOD":"95.592","MEAN_ANOMALY":"292.3154","GP_ID":"186837520","LAUNCH_DATE":"2019-11-11","OBJECT_NAME":"STARLINK-1016","ARG_OF_PERICENTER":"67.8007","TIME_SYSTEM":"UTC","PERIAPSIS":"546.103","RA_OF_ASC_NODE":"219.3829","SITE":"AFETR","MEAN_MOTION_DOT":"-0.00001385","SEMIMAJOR_AXIS":"6925.364","MEAN_ELEMENT_THEORY":"SGP4","BSTAR":"-0.00007408700000","APOAPSIS":"548.355","NORAD_CAT_ID":"44722","TLE_LINE2":"2 44722  53.0545 219.3829 0001626  67.8007 292.3154 15.06394994105912","FILE":"3155694","DECAY_DATE":null,"REV_AT_EPOCH":"10591","REF_FRAME":"TEME","MEAN_MOTION_DDOT":"0.0000000000000","ELEMENT_SET_NO":"999","CENTER_NAME":"EARTH","OBJECT_TYPE":"PAYLOAD","MEAN_MOTION":"15.06394994","ECCENTRICITY":"0.00016260","EPHEMERIS_TYPE":"0","RCS_SIZE":"LARGE","EPOCH":"2021-10-10T12:47:28.736736","COUNTRY_CODE":"US","CLASSIFICATION_TYPE":"U","INCLINATION":"53.0545"},{"NORAD_CAT_ID":"44723","BSTAR":"0.00002972800000","APOAPSIS":"548.374","MEAN_ELEMENT_THEORY":"SGP4","SITE":"AFETR","SEMIMAJOR_AXIS":"6925.347","MEAN_MOTION_DOT":"0.00000161","RA_OF_ASC_NODE":"219.3169","PERIAPSIS":"546.050","TIME_SYSTEM":"UTC","ARG_OF_PERICENTER":"65.2493","OBJECT_NAME":"STARLINK-1017","LAUNCH_DATE":"2019-11-11","GP_ID":"186837770","PERIOD":"95.592","MEAN_ANOMALY":"294.8670","OBJECT_ID":"2019-074L","TLE_LINE1":"1 44723U 19074L   21283.54770483  .00000161  00000-0  29728-4 0  9995","INCLINATION":"53.0560","CLASSIFICATION_TYPE":"U","COUNTRY_CODE":"US","EPOCH":"2021-10-10T13:08:41.697312","RCS_SIZE":"LARGE","EPHEMERIS_TYPE":"0","ECCENTRICITY":"0.00016780","MEAN_MOTION":"15.06400636","CENTER_NAME":"EARTH","OBJECT_TYPE":"PAYLOAD","ELEMENT_SET_NO":"999","MEAN_MOTION_DDOT":"0.0000000000000","REF_FRAME":"TEME","REV_AT_EPOCH":"10591","FILE":"3155694","DECAY_DATE":null,"TLE_LINE2":"2 44723  53.0560 219.3169 0001678  65.2493 294.8670 15.06400636105916"},{"EPOCH":"2021-10-10T07:29:00.335616","RCS_SIZE":"LARGE","ECCENTRICITY":"0.00016140","EPHEMERIS_TYPE":"0","INCLINATION":"53.0543","CLASSIFICATION_TYPE":"U","COUNTRY_CODE":"US","REV_AT_EPOCH":"10587","FILE":"3155126","DECAY_DATE":null,"TLE_LINE2":"2 44724  53.0543 220.3773 0001614  74.1997 285.9170 15.06400152105873","MEAN_MOTION":"15.06400152","OBJECT_TYPE":"PAYLOAD","CENTER_NAME":"EARTH","ELEMENT_SET_NO":"999","MEAN_MOTION_DDOT":"0.0000000000000","REF_FRAME":"TEME","SEMIMAJOR_AXIS":"6925.348","SITE":"AFETR","MEAN_MOTION_DOT":"-0.00001814","RA_OF_ASC_NODE":"220.3773","PERIAPSIS":"546.095","NORAD_CAT_ID":"44724","APOAPSIS":"548.331","BSTAR":"-0.00010288000000","MEAN_ELEMENT_THEORY":"SGP4","PERIOD":"95.592","MEAN_ANOMALY":"285.9170","TLE_LINE1":"1 44724U 19074M   21283.31180944 -.00001814  00000-0 -10288-3 0  9996","OBJECT_ID":"2019-074M","TIME_SYSTEM":"UTC","ARG_OF_PERICENTER":"74.1997","OBJECT_NAME":"STARLINK-1019","LAUNCH_DATE":"2019-11-11","GP_ID":"186780900"},{"REF_FRAME":"TEME","ELEMENT_SET_NO":"999","MEAN_MOTION_DDOT":"0.0000000000000","OBJECT_TYPE":"PAYLOAD","CENTER_NAME":"EARTH","MEAN_MOTION":"15.06396650","TLE_LINE2":"2 44725  53.0534 239.1574 0001678  78.4655 281.6522 15.06396650105634","FILE":"3155694","DECAY_DATE":null,"REV_AT_EPOCH":"10563","COUNTRY_CODE":"US","INCLINATION":"53.0534","CLASSIFICATION_TYPE":"U","EPHEMERIS_TYPE":"0","ECCENTRICITY":"0.00016780","EPOCH":"2021-10-10T13:59:07.387296","RCS_SIZE":"LARGE","GP_ID":"186839272","LAUNCH_DATE":"2019-11-11","OBJECT_NAME":"STARLINK-1020","TIME_SYSTEM":"UTC","ARG_OF_PERICENTER":"78.4655","OBJECT_ID":"2019-074N","TLE_LINE1":"1 44725U 19074N   21283.58272439  .00000038  00000-0  21489-4 0  9998","MEAN_ANOMALY":"281.6522","PERIOD":"95.592","MEAN_ELEMENT_THEORY":"SGP4","APOAPSIS":"548.386","BSTAR":"0.00002148900000","NORAD_CAT_ID":"44725","PERIAPSIS":"546.062","RA_OF_ASC_NODE":"239.1574","SITE":"AFETR","MEAN_MOTION_DOT":"0.00000038","SEMIMAJOR_AXIS":"6925.359"},{"OBJECT_NAME":"STARLINK-1021","ARG_OF_PERICENTER":"77.3017","TIME_SYSTEM":"UTC","GP_ID":"186780398","LAUNCH_DATE":"2019-11-11","PERIOD":"95.592","MEAN_ANOMALY":"282.8144","OBJECT_ID":"2019-074P","TLE_LINE1":"1 44726U 19074P   21283.24177230  .00000012  00000-0  19703-4 0  9993","NORAD_CAT_ID":"44726","MEAN_ELEMENT_THEORY":"SGP4","BSTAR":"0.00001970300000","APOAPSIS":"548.293","RA_OF_ASC_NODE":"220.7001","SEMIMAJOR_AXIS":"6925.364","SITE":"AFETR","MEAN_MOTION_DOT":"0.00000012","PERIAPSIS":"546.164","CENTER_NAME":"EARTH","OBJECT_TYPE":"PAYLOAD","MEAN_MOTION":"15.06395022","REF_FRAME":"TEME","MEAN_MOTION_DDOT":"0.0000000000000","ELEMENT_SET_NO":"999","DECAY_DATE":null,"FILE":"3155126","REV_AT_EPOCH":"10586","TLE_LINE2":"2 44726  53.0542 220.7001 0001537  77.3017 282.8144 15.06395022105869","CLASSIFICATION_TYPE":"U","INCLINATION":"53.0542","COUNTRY_CODE":"US","RCS_SIZE":"LARGE","EPOCH":"2021-10-10T05:48:09.126720","EPHEMERIS_TYPE":"0","ECCENTRICITY":"0.00015370"},{"MEAN_MOTION":"15.06402906","CENTER_NAME":"EARTH","OBJECT_TYPE":"PAYLOAD","MEAN_MOTION_DDOT":"0.0000000000000","ELEMENT_SET_NO":"999","REF_FRAME":"TEME","REV_AT_EPOCH":"10533","DECAY_DATE":null,"FILE":"3155126","TLE_LINE2":"2 44727  53.0547 260.1577 0001552  68.0174 292.0980 15.06402906105332","INCLINATION":"53.0547","CLASSIFICATION_TYPE":"U","COUNTRY_CODE":"US","RCS_SIZE":"LARGE","EPOCH":"2021-10-10T08:16:46.529472","EPHEMERIS_TYPE":"0","ECCENTRICITY":"0.00015520","ARG_OF_PERICENTER":"68.0174","TIME_SYSTEM":"UTC","OBJECT_NAME":"STARLINK-1022","LAUNCH_DATE":"2019-11-11","GP_ID":"186780648","MEAN_ANOMALY":"292.0980","PERIOD":"95.592","TLE_LINE1":"1 44727U 19074Q   21283.34498298 -.00000258  00000-0  16008-5 0  9994","OBJECT_ID":"2019-074Q","NORAD_CAT_ID":"44727","APOAPSIS":"548.279","BSTAR":"0.00000160080000","MEAN_ELEMENT_THEORY":"SGP4","SITE":"AFETR","SEMIMAJOR_AXIS":"6925.340","MEAN_MOTION_DOT":"-0.00000258","RA_OF_ASC_NODE":"260.1577","PERIAPSIS":"546.130"}];
